{"type": "FeatureCollection", "features": [ {"type": "Feature", "properties": {"norad_id": 34979, "name": "COSMOS 2251 DEB", "group": "cosmos-2251-debris", "lat": 36.77006985449636, "lon": 60.736667624183504, "alt_km": 662.1644426576868, "timestamp": "2025-12-19T22:41:52.791660+00:00", "meta": {"OBJECT_NAME": "COSMOS 2251 DEB", "OBJECT_ID": "1993-036AFJ", "EPOCH": "2025-12-19T10:42:00.055872", "MEAN_MOTION": 14.79466797, "ECCENTRICITY": 0.0049167, "INCLINATION": 74.0402, "RA_OF_ASC_NODE": 254.0683, "ARG_OF_PERICENTER": 330.6854, "MEAN_ANOMALY": 29.1564, "EPHEMERIS_TYPE": 0, "CLASSIFICATION_TYPE": "U", "NORAD_CAT_ID": 34979, "ELEMENT_SET_NO": 999, "REV_AT_EPOCH": 88319, "BSTAR": 0.00076473, "MEAN_MOTION_DOT": 5.8e-05, "MEAN_MOTION_DDOT": 0}, "tle": {"line1": "1 34979U 93036AFJ 25353.44583398  .00005800  00000+0  76473-3 0  9997", "line2": "2 34979  74.0402 254.0683 0049167 330.6854  29.1564 14.79466797883191"}}, "geometry": {"type": "Point", "coordinates": [60.736667624183504, 36.77006985449636]}}, {"type": "Feature", "properties": {"norad_id": 34990, "name": "COSMOS 2251 DEB", "group": "cosmos-2251-debris", "lat": 5.3335615422888285, "lon": -120.4894594352953, "alt_km": 747.7117847459785, "timestamp": "2025-12-19T22:41:52.791670+00:00", "meta": {"OBJECT_NAME": "COSMOS 2251 DEB", "OBJECT_ID": "1993-036AFN", "EPOCH": "2025-12-15T10:28:28.781472", "MEAN_MOTION": 14.42382837, "ECCENTRICITY": 0.00165597, "INCLINATION": 74.0457, "RA_OF_ASC_NODE": 246.3361, "ARG_OF_PERICENTER": 308.9911, "MEAN_ANOMALY": 50.977, "EPHEMERIS_TYPE": 0, "CLASSIFICATION_TYPE": "U", "NORAD_CAT_ID": 34990, "ELEMENT_SET_NO": 999, "REV_AT_EPOCH": 87385, "BSTAR": 0.00031884459, "MEAN_MOTION_DOT": 1.029e-05, "MEAN_MOTION_DDOT": 0}, "tle": {"line1": "1 34990U 93036AFN 25349.43644423  .00001029  00000+0  31884-3 0  9997", "line2": "2 34990  74.0457 246.3361 0016559 308.9911  50.9770 14.42382837873857"}}, "geometry": {"type": "Point", "coordinates": [-120.4894594352953, 5.3335615422888285]}}, {"type": "Feature", "properties": {"norad_id": 34997, "name": "COSMOS 2251 DEB", "group": "cosmos-2251-debris", "lat": -67.90785284067422, "lon": 163.07088493111618, "alt_km": 680.0572023334325, "timestamp": "2025-12-19T22:41:52.791681+00:00", "meta": {"OBJECT_NAME": "COSMOS 2251 DEB", "OBJECT_ID": "1993-036AFV", "EPOCH": "2025-12-14T03:40:01.084512", "MEAN_MOTION": 14.45585468, "ECCENTRICITY": 0.00977103, "INCLINATION": 73.8806, "RA_OF_ASC_NODE": 308.5363, "ARG_OF_PERICENTER": 283.3348, "MEAN_ANOMALY": 75.6929, "EPHEMERIS_TYPE": 0, "CLASSIFICATION_TYPE": "U", "NORAD_CAT_ID": 34997, "ELEMENT_SET_NO": 999, "REV_AT_EPOCH": 70767, "BSTAR": 0.0019000145, "MEAN_MOTION_DOT": 7.095e-05, "MEAN_MOTION_DDOT": 0}, "tle": {"line1": "1 34997U 93036AFV 25348.15279033  .00007095  00000+0  19000-2 0  9997", "line2": "2 34997  73.8806 308.5363 0097710 283.3348  75.6929 14.45585468707674"}}, "geometry": {"type": "Point", "coordinates": [163.07088493111618, -67.90785284067422]}}, {"type": "Feature", "properties": {"norad_id": 34998, "name": "COSMOS 2251 DEB", "group": "cosmos-2251-debris", "lat": -46.77186964542474, "lon": -15.790824372061383, "alt_km": 727.1052903173286, "timestamp": "2025-12-19T22:41:52.791691+00:00", "meta": {"OBJECT_NAME": "COSMOS 2251 DEB", "OBJECT_ID": "1993-036AFW", "EPOCH": "2025-12-18T21:30:12.356640", "MEAN_MOTION": 14.493061, "ECCENTRICITY": 0.00213351, "INCLINATION": 74.0096, "RA_OF_ASC_NODE": 148.4189, "ARG_OF_PERICENTER": 293.0415, "MEAN_ANOMALY": 221.403, "EPHEMERIS_TYPE": 0, "CLASSIFICATION_TYPE": "U", "NORAD_CAT_ID": 34998, "ELEMENT_SET_NO": 999, "REV_AT_EPOCH": 87509, "BSTAR": 0.00045734953, "MEAN_MOTION_DOT": 1.723e-05, "MEAN_MOTION_DDOT": 0}, "tle": {"line1": "1 34998U 93036AFW 25352.89597635  .00001723  00000+0  45735-3 0  9992", "line2": "2 34998  74.0096 148.4189 0021335 293.0415 221.4030 14.49306100875093"}}, "geometry": {"type": "Point", "coordinates": [-15.790824372061383, -46.77186964542474]}}, {"type": "Feature", "properties": {"norad_id": 35012, "name": "COSMOS 2251 DEB", "group": "cosmos-2251-debris", "lat": 68.08152200266348, "lon": -127.11802587353401, "alt_km": 771.5497808686187, "timestamp": "2025-12-19T22:41:52.791701+00:00", "meta": {"OBJECT_NAME": "COSMOS 2251 DEB", "OBJECT_ID": "1993-036AFZ", "EPOCH": "2025-12-17T08:45:06.225696", "MEAN_MOTION": 14.45554969, "ECCENTRICITY": 0.00815478, "INCLINATION": 74.0209, "RA_OF_ASC_NODE": 103.105, "ARG_OF_PERICENTER": 242.2771, "MEAN_ANOMALY": 117.0098, "EPHEMERIS_TYPE": 0, "CLASSIFICATION_TYPE": "U", "NORAD_CAT_ID": 35012, "ELEMENT_SET_NO": 999, "REV_AT_EPOCH": 87628, "BSTAR": 0.00015311641, "MEAN_MOTION_DOT": 5.34e-06, "MEAN_MOTION_DDOT": 0}, "tle": {"line1": "1 35012U 93036AFZ 25351.36465539  .00000534  00000+0  15312-3 0  9995", "line2": "2 35012  74.0209 103.1050 0081547 242.2771 117.0098 14.45554969876284"}}, "geometry": {"type": "Point", "coordinates": [-127.11802587353401, 68.08152200266348]}}, {"type": "Feature", "properties": {"norad_id": 35014, "name": "COSMOS 2251 DEB", "group": "cosmos-2251-debris", "lat": -72.33918769955783, "lon": -86.2596530020425, "alt_km": 648.3103602475385, "timestamp": "2025-12-19T22:41:52.791711+00:00", "meta": {"OBJECT_NAME": "COSMOS 2251 DEB", "OBJECT_ID": "1993-036AGB", "EPOCH": "2025-12-17T09:17:45.359520", "MEAN_MOTION": 14.75277506, "ECCENTRICITY": 0.00070196, "INCLINATION": 73.9998, "RA_OF_ASC_NODE": 34.4305, "ARG_OF_PERICENTER": 212.3979, "MEAN_ANOMALY": 147.6764, "EPHEMERIS_TYPE": 0, "CLASSIFICATION_TYPE": "U", "NORAD_CAT_ID": 35014, "ELEMENT_SET_NO": 999, "REV_AT_EPOCH": 71405, "BSTAR": 0.0010947042, "MEAN_MOTION_DOT": 7.39e-05, "MEAN_MOTION_DDOT": 0}, "tle": {"line1": "1 35014U 93036AGB 25351.38733055  .00007390  00000+0  10947-2 0  9995", "line2": "2 35014  73.9998  34.4305 0007019 212.3979 147.6764 14.75277506714055"}}, "geometry": {"type": "Point", "coordinates": [-86.2596530020425, -72.33918769955783]}}, {"type": "Feature", "properties": {"norad_id": 35015, "name": "COSMOS 2251 DEB", "group": "cosmos-2251-debris", "lat": -72.74446366058898, "lon": 153.23223360030832, "alt_km": 794.9785837658092, "timestamp": "2025-12-19T22:41:52.791721+00:00", "meta": {"OBJECT_NAME": "COSMOS 2251 DEB", "OBJECT_ID": "1993-036AGC", "EPOCH": "2025-12-15T22:56:26.813760", "MEAN_MOTION": 14.46895598, "ECCENTRICITY": 0.0074243, "INCLINATION": 73.9481, "RA_OF_ASC_NODE": 228.6843, "ARG_OF_PERICENTER": 96.6585, "MEAN_ANOMALY": 285.5342, "EPHEMERIS_TYPE": 0, "CLASSIFICATION_TYPE": "U", "NORAD_CAT_ID": 35015, "ELEMENT_SET_NO": 999, "REV_AT_EPOCH": 65487, "BSTAR": 0.00054698056, "MEAN_MOTION_DOT": 2.026e-05, "MEAN_MOTION_DDOT": 0}, "tle": {"line1": "1 35015U 93036AGC 25349.95586590  .00002026  00000+0  54698-3 0  9999", "line2": "2 35015  73.9481 228.6843 0074243  96.6585 285.5342 14.46895598654878"}}, "geometry": {"type": "Point", "coordinates": [153.23223360030832, -72.74446366058898]}}, {"type": "Feature", "properties": {"norad_id": 35016, "name": "COSMOS 2251 DEB", "group": "cosmos-2251-debris", "lat": -7.346089890790075, "lon": -81.00482025583604, "alt_km": 852.7269542450276, "timestamp": "2025-12-19T22:41:52.791731+00:00", "meta": {"OBJECT_NAME": "COSMOS 2251 DEB", "OBJECT_ID": "1993-036AGD", "EPOCH": "2025-12-19T13:32:06.595008", "MEAN_MOTION": 14.35072708, "ECCENTRICITY": 0.0114167, "INCLINATION": 73.9302, "RA_OF_ASC_NODE": 281.8291, "ARG_OF_PERICENTER": 197.3653, "MEAN_ANOMALY": 342.9509, "EPHEMERIS_TYPE": 0, "CLASSIFICATION_TYPE": "U", "NORAD_CAT_ID": 35016, "ELEMENT_SET_NO": 999, "REV_AT_EPOCH": 86880, "BSTAR": 0.00020975, "MEAN_MOTION_DOT": 6.16e-06, "MEAN_MOTION_DDOT": 0}, "tle": {"line1": "1 35016U 93036AGD 25353.56396522  .00000616  00000+0  20975-3 0  9990", "line2": "2 35016  73.9302 281.8291 0114167 197.3653 342.9509 14.35072708868805"}}, "geometry": {"type": "Point", "coordinates": [-81.00482025583604, -7.346089890790075]}}, {"type": "Feature", "properties": {"norad_id": 35018, "name": "COSMOS 2251 DEB", "group": "cosmos-2251-debris", "lat": 43.84347546742281, "lon": -97.9053903212788, "alt_km": 1159.0147368852895, "timestamp": "2025-12-19T22:41:52.791742+00:00", "meta": {"OBJECT_NAME": "COSMOS 2251 DEB", "OBJECT_ID": "1993-036AGF", "EPOCH": "2025-12-17T17:22:46.408800", "MEAN_MOTION": 13.67124195, "ECCENTRICITY": 0.03487062, "INCLINATION": 73.976, "RA_OF_ASC_NODE": 101.7737, "ARG_OF_PERICENTER": 9.849, "MEAN_ANOMALY": 350.9229, "EPHEMERIS_TYPE": 0, "CLASSIFICATION_TYPE": "U", "NORAD_CAT_ID": 35018, "ELEMENT_SET_NO": 999, "REV_AT_EPOCH": 83254, "BSTAR": 0.00069190439, "MEAN_MOTION_DOT": 8.6e-06, "MEAN_MOTION_DDOT": 0}, "tle": {"line1": "1 35018U 93036AGF 25351.72414825  .00000860  00000+0  69190-3 0  9998", "line2": "2 35018  73.9760 101.7737 0348706   9.8490 350.9229 13.67124195832546"}}, "geometry": {"type": "Point", "coordinates": [-97.9053903212788, 43.84347546742281]}}, {"type": "Feature", "properties": {"norad_id": 35020, "name": "COSMOS 2251 DEB", "group": "cosmos-2251-debris", "lat": 73.75471211316032, "lon": -95.8184617483225, "alt_km": 731.9699731015089, "timestamp": "2025-12-19T22:41:52.791752+00:00", "meta": {"OBJECT_NAME": "COSMOS 2251 DEB", "OBJECT_ID": "1993-036AGH", "EPOCH": "2025-12-16T23:43:20.938656", "MEAN_MOTION": 14.62811627, "ECCENTRICITY": 0.00912676, "INCLINATION": 74.046, "RA_OF_ASC_NODE": 190.8083, "ARG_OF_PERICENTER": 304.0673, "MEAN_ANOMALY": 55.1854, "EPHEMERIS_TYPE": 0, "CLASSIFICATION_TYPE": "U", "NORAD_CAT_ID": 35020, "ELEMENT_SET_NO": 999, "REV_AT_EPOCH": 88300, "BSTAR": 0.00011860336, "MEAN_MOTION_DOT": 6.08e-06, "MEAN_MOTION_DDOT": 0}, "tle": {"line1": "1 35020U 93036AGH 25350.98843679  .00000608  00000+0  11860-3 0  9992", "line2": "2 35020  74.0460 190.8083 0091267 304.0673  55.1854 14.62811627883005"}}, "geometry": {"type": "Point", "coordinates": [-95.8184617483225, 73.75471211316032]}}]}